EYESAT-1 (AO-27)        
1 22825U 93061C   17252.50612852  .00000022  00000-0  26199-4 0  9999
2 22825  98.8213 219.1631 0009544  85.7262 274.5010 14.30005283249186
CUTE-1 (CO-55)          
1 27844U 03031E   17252.57853569  .00000156  00000-0  90386-4 0  9999
2 27844  98.6904 260.3594 0010925 102.0338 258.2065 14.22058270736270
CUBESAT XI-IV (CO-57)   
1 27848U 03031J   17252.60122721  .00000120  00000-0  74399-4 0  9993
2 27848  98.6997 260.6758 0010767 110.5685 249.6648 14.21670289736162
CUBESAT XI 5            
1 28895U 05043F   17252.41066953  .00000389  00000-0  83813-4 0  9992
2 28895  97.8748  50.8678 0015728 234.4451 125.5286 14.63432690632803
CUTE-1.7+APD II (CO-65) 
1 32785U 08021C   17252.50668638  .00000704  00000-0  82358-4 0  9996
2 32785  97.5632 272.9142 0011663 246.3256 113.6738 14.87944098507365
COMPASS-1               
1 32787U 08021E   17252.54884976  .00001868  00000-0  18610-3 0  9998
2 32787  97.5546 282.3421 0011762 210.4485 149.6053 14.92701070508033
AAUSAT-II               
1 32788U 08021F   17252.62819164  .00002275  00000-0  21838-3 0  9994
2 32788  97.5529 285.4064 0011377 201.0356 159.0398 14.93982551508287
DELFI-C3 (DO-64)        
1 32789U 08021G   17253.19507454  .00003101  00000-0  22154-3 0  9995
2 32789  97.5500 309.6129 0013254 166.1893 193.9699 15.05149406509652
CANX-2                  
1 32790U 08021H   17252.83832865  .00000905  00000-0  10496-3 0  9999
2 32790  97.5614 271.5502 0012343 247.2493 112.7420 14.87667485507422
SEEDS II (CO-66)        
1 32791U 08021J   17253.04693702  .00000956  00000-0  10373-3 0  9999
2 32791  97.5589 278.0534 0012286 226.2834 133.7367 14.90301596507787
SWISSCUBE               
1 35932U 09051B   17252.38696101  .00000362  00000-0  93022-4 0  9999
2 35932  98.5076  32.4540 0007496   1.8553 358.2670 14.56047547422579
BEESAT                  
1 35933U 09051C   17252.36648304  .00000312  00000-0  81537-4 0  9993
2 35933  98.5117  33.7985 0006029  17.8271 342.3136 14.56163399422674
ITUPSAT 1               
1 35935U 09051E   17252.33250115  .00000252  00000-0  69200-4 0  9997
2 35935  98.5228  34.0183 0008174   8.6109 351.5226 14.55353586422449
TISAT 1                 
1 36799U 10035E   17252.33220903  .00001299  00000-0  13903-3 0  9992
2 36799  98.0716  16.8136 0013473  55.0466 305.2015 14.90485519388311
M-CUBED & EXP-1 PRIME   
1 37855U 11061F   17253.12833051  .00003988  00000-0  21381-3 0  9994
2 37855 101.7036 167.6902 0179878 190.5302 169.2121 15.03320197319555
HORYU 2                 
1 38340U 12025D   17253.06650472  .00000641  00000-0  10248-3 0  9995
2 38340  98.3783 259.9869 0012258  28.1134 332.0734 14.75390078285802
STRAND-1                
1 39090U 13009E   17252.53202873  .00000125  00000-0  59131-4 0  9992
2 39090  98.5470  97.1501 0010217  54.2285 305.9849 14.34982149237573
BRITE-AUSTRIA           
1 39091U 13009F   17253.17029090  .00000030  00000-0  25918-4 0  9993
2 39091  98.5435  97.1418 0011547  59.0950 301.1369 14.35039446237682
UNIBRITE                
1 39092U 13009G   17253.17707018  .00000029  00000-0  25471-4 0  9999
2 39092  98.5445  96.8311 0010376  53.5230 306.6910 14.34914144237667
AIST-2                  
1 39133U 13015D   17253.13036370  .00000918  00000-0  77223-4 0  9993
2 39133  64.8746  17.1009 0038300 267.7503  91.9231 15.04347898241076
SOMP                    
1 39134U 13015E   17253.20809225  .00004196  00000-0  21054-3 0  9991
2 39134  64.8652 311.9722 0039462 250.2009 109.4861 15.18097170242387
BEESAT-2                
1 39136U 13015G   17252.52852155  .00005865  00000-0  31548-3 0  9990
2 39136  64.8722 326.0518 0034147 271.2914  88.4300 15.15318592241665
NEE-01 PEGASUS          
1 39151U 13018B   17253.23667525  .00000523  00000-0  76377-4 0  9990
2 39151  97.9832 344.2201 0018238 132.2256 228.0507 14.79759722236118
CUBEBUG-1 (CAPITAN BETO)
1 39153U 13018D   17252.79443937  .00001001  00000-0  13828-3 0  9994
2 39153  97.9856 344.6428 0018131 131.7381 228.5384 14.80228303236101
ESTCUBE 1               
1 39161U 13021C   17253.17340699  .00000512  00000-0  89648-4 0  9991
2 39161  98.0264 338.0639 0008795 223.3099 136.7454 14.71935507233257
POPACS 1                
1 39268U 13055D   17252.38891573  .00012856  00000-0  37157-3 0  9991
2 39268  81.0011 280.2891 0647439 332.6719  24.1723 14.31774562202761
POPACS 2                
1 39269U 13055E   17252.47006202  .00007964  00000-0  23462-3 0  9997
2 39269  81.0142 296.5953 0698824  15.1651 346.9341 14.20484802202043
POPACS 3                
1 39270U 13055F   17252.43637291  .00004478  00000-0  14076-3 0  9991
2 39270  81.0176 305.6198 0724354  42.4138 323.0737 14.13556245181972
FIREFLY                 
1 39404U 13064AA  17251.06213925  .00163258  00000-0  64260-3 0  9994
2 39404  40.4942 136.5917 0010851 295.9821  63.9892 15.85481188214371
ZACUBE-1 (TSHEPISOSAT)  
1 39417U 13066B   17253.10281934  .00000664  00000-0  90303-4 0  9991
2 39417  97.6222 291.1945 0059030 353.7017   6.3447 14.80762138205346
WNISAT-1                
1 39423U 13066H   17253.18908872  .00000567  00000-0  12179-3 0  9999
2 39423  97.6890 234.5570 0175894 171.9213 188.4887 14.52868121201573
TRITON-1                
1 39427U 13066M   17252.60406745  .00000906  00000-0  15233-3 0  9992
2 39427  97.6375 262.3035 0115816  78.5326 282.8860 14.67505334203230
GOMX 1                  
1 39430U 13066Q   17253.21957047  .00000426  00000-0  85959-4 0  9990
2 39430  97.6701 245.7962 0152898 134.0993 227.2910 14.58911997202335
BRITE-PL                
1 39431U 13066R   17252.48912849  .00000181  00000-0  49031-4 0  9999
2 39431  97.7153 222.8079 0201746 214.4701 144.3273 14.46864778200633
HUMSAT-D                
1 39433U 13066T   17252.71989743  .00002085  00000-0  21197-3 0  9991
2 39433  97.6448 313.3111 0029740 297.2127  62.6062 14.91533392206614
EAGLE 2                 
1 39436U 13066W   17252.86336839  .00065966  00000-0  15679-2 0  9996
2 39436  97.7123   3.1625 0009499 140.4436 219.7504 15.41384783209672
CUBEBUG-2 (LO-74)       
1 39440U 13066AA  17253.15098181  .00000720  00000-0  10742-3 0  9993
2 39440  97.6238 279.7582 0081318  25.7631 334.7594 14.75502758204625
NEE-02 KRYSAOR          
1 39441U 13066AB  17253.07093353  .00000507  00000-0  79081-4 0  9996
2 39441  97.6220 278.2676 0082836  29.8467 330.7429 14.74655938204499
FUNCUBE-1 (AO-73)       
1 39444U 13066AE  17252.56743827  .00001174  00000-0  15204-3 0  9997
2 39444  97.6239 291.8479 0058142 351.9154   8.1116 14.81507338203518
UWE-3                   
1 39446U 13066AG  17252.57003134  .00000983  00000-0  13755-3 0  9996
2 39446  97.6219 284.6392 0070651  11.8560 348.4294 14.78036384203076
BRITE-TORONTO           
1 40020U 14033L   17253.12560926  .00000291  00000-0  57980-4 0  9991
2 40020  97.8231 120.0360 0088855  57.2514 303.7215 14.66417667172546
DUCHIFAT-1              
1 40021U 14033M   17253.18710647  .00001342  00000-0  14500-3 0  9993
2 40021  97.9134 166.4585 0013870  26.8883 333.3050 14.89980076175250
FLOCK 1C-10             
1 40023U 14033P   17253.21891292  .00002411  00000-0  26300-3 0  9994
2 40023  97.9152 165.4537 0013467  32.4203 327.7873 14.88837242175153
NANOSATC-BR1            
1 40024U 14033Q   17252.28731118  .00001262  00000-0  13901-3 0  9997
2 40024  97.9089 164.3110 0013260  31.4070 328.7936 14.89292156174543
QB50P1                  
1 40025U 14033R   17253.18596299  .00000906  00000-0  10351-3 0  9997
2 40025  97.9065 164.1227 0013387  31.5897 328.6120 14.88483871175138
FLOCK 1C-7              
1 40026U 14033S   17253.19376331  .00003695  00000-0  39264-3 0  9994
2 40026  97.9196 166.2674 0012101  30.3893 329.8017 14.89578574175201
FLOCK 1C-1              
1 40027U 14033T   17252.71293081  .00003837  00000-0  41421-3 0  9998
2 40027  97.9190 165.1994 0013550  30.8232 329.4046 14.88899748175093
POPSAT-HIP-1            
1 40028U 14033U   17253.09052765  .00001690  00000-0  18826-3 0  9991
2 40028  97.9093 164.3268 0014833  29.7162 330.4901 14.88352128175105
FLOCK 1C-2              
1 40029U 14033V   17253.21126144  .00002069  00000-0  22604-3 0  9999
2 40029  97.9168 165.5480 0014672  25.5328 334.6619 14.88914577175156
FLOCK 1C-4              
1 40031U 14033X   17253.16901835  .00003822  00000-0  41378-3 0  9991
2 40031  97.9184 165.4737 0015467  24.8453 335.3507 14.88766696175134
QB50P2                  
1 40032U 14033Y   17252.58624111  .00001364  00000-0  15440-3 0  9996
2 40032  97.9036 162.5553 0012730  28.9826 331.2094 14.88040922174473
FLOCK 1C-11             
1 40033U 14033Z   17253.20914733  .00002232  00000-0  23560-3 0  9996
2 40033  97.9184 167.1231 0012787  18.5232 341.6368 14.90245566175250
ANTELSAT                
1 40034U 14033AA  17252.74738447  .00001011  00000-0  15802-3 0  9995
2 40034  97.8466 134.0058 0059767  22.2007 338.1769 14.73748422173382
FLOCK 1C-9              
1 40035U 14033AB  17253.19681564  .00003280  00000-0  35435-3 0  9997
2 40035  97.9195 165.9344 0012640  19.8136 340.3560 14.88977653175155
FLOCK 1C-6              
1 40036U 14033AC  17253.21177061  .00002482  00000-0  26895-3 0  9996
2 40036  97.9208 166.1794 0012368  20.9701 339.1977 14.89079212175176
PERSEUS-M2              
1 40037U 14033AD  17252.55256300  .00000586  00000-0  72837-4 0  9998
2 40037  97.9051 160.8636 0015303  34.0624 326.1570 14.86255687174343
FLOCK 1C-5              
1 40038U 14033AE  17253.21983472  .00001531  00000-0  16830-3 0  9991
2 40038  97.9210 165.9781 0014673  19.0481 341.1281 14.89055524175169
PERSEUS-M1              
1 40039U 14033AF  17252.70832984  .00000582  00000-0  72957-4 0  9994
2 40039  97.9057 160.5390 0015045  30.0105 330.1970 14.85879557174827
FLOCK 1C-8              
1 40040U 14033AG  17252.96542512  .00003628  00000-0  37201-3 0  9995
2 40040  97.9233 168.1108 0013514   8.2246 351.9176 14.91014884175267
